OBJECT_NAME,OBJECT_ID,EPOCH,MEAN_MOTION,ECCENTRICITY,INCLINATION,RA_OF_ASC_NODE,ARG_OF_PERICENTER,MEAN_ANOMALY,EPHEMERIS_TYPE,CLASSIFICATION_TYPE,NORAD_CAT_ID,ELEMENT_SET_NO,REV_AT_EPOCH,BSTAR,MEAN_MOTION_DOT,MEAN_MOTION_DDOT
PERSEUS-M1,2014-033AF,2026-06-19T02:38:35.944800,14.95635701,.00101736,97.9641,114.2733,294.0201,65.9954,0,U,40039,999,65092,.12603774E-3,.1341E-4,0
POLYITAN-1,2014-033AJ,2026-06-18T14:50:43.313568,15.33297714,.00087243,98.0940,196.0151,137.4054,222.7864,0,U,40042,999,65381,.4742275E-3,.152E-3,0
TIGRISAT,2014-033AK,2026-06-19T03:17:23.208288,14.85168537,.00505369,97.7833,320.1038,68.9840,291.6771,0,U,40043,999,64591,.18250658E-3,.1544E-4,0
AEROCUBE 6A,2014-033AM,2026-06-19T02:15:30.519936,14.98124384,.00387638,97.7251,337.0224,11.6131,348.5976,0,U,40045,999,64690,.33165803E-3,.3928E-4,0
AEROCUBE 6B,2014-033AN,2026-06-19T00:40:06.291840,14.99584096,.00381758,97.7249,336.7512,3.0298,357.1149,0,U,40046,999,64703,.31386849E-3,.3858E-4,0
CANX-4,2014-034C,2026-06-19T05:54:10.838592,14.81267873,.00130153,98.3120,45.6347,10.6320,349.5164,0,U,40055,999,64483,.97035699E-4,.7E-5,0
CANX-5,2014-034D,2026-06-19T05:51:53.396064,14.81285151,.00130175,98.3121,45.6767,10.8306,349.3184,0,U,40056,999,63564,.97968512E-4,.707E-5,0
UKUBE-1,2014-037F,2026-06-19T06:48:38.217888,15.13582539,.00027422,98.4238,173.7760,128.5599,231.5876,0,U,40074,999,64887,.41954059E-3,.7453E-4,0
BRITE-PL2 (HEWELIUSZ),2014-049B,2026-06-19T05:56:47.892192,14.94599939,.00153506,97.9100,282.2635,102.3466,257.9473,0,U,40119,999,64175,.15949859E-3,.167E-4,0
AEROCUBE 5C,2015-058B,2026-06-18T23:32:59.656992,14.91459883,.01308372,64.7672,257.0093,62.5586,298.8761,0,U,40965,999,36592,.15400957E-3,.1638E-4,0
AEROCUBE 7,2015-058C,2026-06-19T05:45:27.222624,14.95735626,.01205615,64.7613,238.3864,60.8822,300.4298,0,U,40966,999,36626,.20127356E-3,.2418E-4,0
FOX-1A (AO-85),2015-058D,2026-06-19T07:08:43.007136,14.90977573,.01305679,64.7756,272.4251,55.7770,305.5632,0,U,40967,999,11388,.16855506E-3,.1785E-4,0
SINOD-D 1,2015-058E,2026-06-19T05:13:21.064224,14.95915852,.01191763,64.7747,252.5544,52.2744,308.9100,0,U,40968,999,11696,.20238583E-3,.2436E-4,0
SNAP-3 ALICE,2015-058G,2026-06-19T05:23:44.579328,15.60483812,.00275805,64.7499,96.8866,11.6673,348.5106,0,U,40970,999,11720,.13970856E-2,.119396E-2,0
LMRST-SAT,2015-058H,2026-06-19T06:05:07.712736,14.90596790,.0132182,64.7752,268.9039,57.8257,303.5596,0,U,40971,999,11386,.15267579E-3,.1588E-4,0
SNAP-3 EDDIE,2015-058J,2026-06-19T03:34:47.868096,15.61749753,.00272319,64.7421,87.8578,15.5679,344.6299,0,U,40972,999,11933,.13071898E-2,.11723E-2,0
PROPCUBE 3,2015-058K,2026-06-19T05:12:41.518944,14.94265864,.0124148,64.7679,246.1936,59.1110,302.2142,0,U,40973,999,11510,.17563793E-3,.2017E-4,0
BISONSAT,2015-058L,2026-06-19T06:37:06.097728,15.16230444,.00792509,64.7582,166.8919,46.4135,314.3530,0,U,40974,999,11593,.5182438E-3,.1071E-3,0
SNAP-3 JIMI,2015-058M,2026-06-19T06:04:04.162944,15.02312135,.01062754,64.7632,213.2369,54.5347,306.5632,0,U,40975,999,11453,.2484955E-3,.3531E-4,0
PROPCUBE 1 (FLORA),2015-058N,2026-06-19T01:49:33.622176,14.89228620,.01308393,64.7742,289.3817,60.2044,301.2003,0,U,40976,999,11654,.16541788E-3,.1665E-4,0
SINOD-D 3,2015-058P,2026-06-19T05:58:47.503488,14.94026138,.01193727,64.7727,269.3804,57.3195,303.9365,0,U,40977,999,11506,.20859019E-3,.2387E-4,0
HORYU-4,2016-012D,2026-06-19T01:29:50.572896,15.97473078,.00060764,30.9841,65.2425,284.0603,75.9383,0,U,41340,999,57111,.93801748E-3,.441316E-2,.73851484E-4
RAVAN,2016-067B,2026-06-19T05:33:58.847040,15.54849791,.00040523,97.9883,60.0397,25.6604,334.4848,0,U,41849,999,52801,.69570065E-3,.46493E-3,0
CELTEE 1,2016-067C,2026-06-19T04:22:42.106656,15.19698444,.00010457,98.0667,36.8852,127.8633,232.2695,0,U,41850,999,52618,.2137646E-3,.4486E-4,0
OPTICUBE 04,2016-067D,2026-06-19T01:37:22.880352,15.09665987,.00169521,98.0698,22.4495,109.7058,250.6000,0,U,41851,999,52545,.12182089E-3,.1895E-4,0
AEROCUBE 8D,2016-067E,2026-06-18T14:23:32.284608,15.24413704,.0004791,98.0674,39.8781,119.8253,240.3459,0,U,41852,999,52628,.2456E-3,.5942E-4,0
AEROCUBE 8C,2016-067F,2026-06-19T02:00:44.048160,15.24668047,.00065294,98.0544,37.6237,63.7296,296.4610,0,U,41853,999,52635,.23976403E-3,.5845E-4,0
CORVUS BC2,2017-042X,2026-06-18T22:07:43.526784,15.06307766,.0014481,97.4074,331.2038,105.0492,255.2340,0,U,42846,999,48732,.21041E-3,.3039E-4,0
CORVUS BC1,2017-042Y,2026-06-19T04:22:16.220352,15.06477848,.00134812,97.4108,332.2694,83.2395,277.0366,0,U,42847,999,48739,.18460517E-3,.2671E-4,0
MAKERSAT 0,2017-073D,2026-06-19T04:54:34.853184,15.32154743,.0104988,97.4615,52.7389,265.6718,93.2521,0,U,43016,999,46677,.39819278E-3,.1464E-3,0
