
AEROCUBE 5C
1 40965U 15058B   26169.98124603  .00001638  00000+0  15401-3 0  9991
2 40965  64.7672 257.0093 0130837  62.5586 298.8761 14.91459883365926

AEROCUBE 6A
1 40045U 14033AM  26170.09410324  .00003928  00000+0  33166-3 0  9996
2 40045  97.7251 337.0224 0038763  11.6131 348.5976 14.98124384646908

AEROCUBE 6B
1 40046U 14033AN  26170.02785060  .00003858  00000+0  31387-3 0  9997
2 40046  97.7249 336.7512 0038175   3.0298 357.1149 14.99584096647032

AEROCUBE 7
1 40966U 15058C   26170.23989841  .00002418  00000+0  20127-3 0  9993
2 40966  64.7613 238.3864 0120561  60.8822 300.4298 14.95735626366266

AEROCUBE 8C
1 41853U 16067F   26170.08384315  .00005845  00000+0  23976-3 0  9990
2 41853  98.0544  37.6237 0006529  63.7296 296.4610 15.24668047526358

AEROCUBE 8D
1 41852U 16067E   26169.59967922  .00005942  00000+0  24560-3 0  9992
2 41852  98.0674  39.8781 0004791 119.8253 240.3459 15.24413704526283

BISONSAT
1 40974U 15058L   26170.27576502  .00010710  00000+0  51824-3 0  9994
2 40974  64.7582 166.8919 0079250  46.4135 314.3530 15.16230444115932

BRITE-PL2 (HEWELIUSZ)
1 40119U 14049B   26170.24777653  .00001670  00000+0  15950-3 0  9996
2 40119  97.9100 282.2635 0015350 102.3466 257.9473 14.94599939641759

CANX-4
1 40055U 14034C   26170.24595878  .00000700  00000+0  97036-4 0  9995
2 40055  98.3120  45.6347 0013015  10.6320 349.5164 14.81267873644834

CANX-5
1 40056U 14034D   26170.24436801  .00000707  00000+0  97969-4 0  9998
2 40056  98.3121  45.6767 0013017  10.8306 349.3184 14.81285151635648

CELTEE 1
1 41850U 16067C   26170.18243179  .00004486  00000+0  21376-3 0  9992
2 41850  98.0667  36.8852 0001045 127.8633 232.2695 15.19698444526180

CORVUS BC1
1 42847U 17042Y   26170.18213218  .00002671  00000+0  18461-3 0  9999
2 42847  97.4108 332.2694 0013481  83.2395 277.0366 15.06477848487394

CORVUS BC2
1 42846U 17042X   26169.92203156  .00003039  00000+0  21041-3 0  9995
2 42846  97.4074 331.2038 0014481 105.0492 255.2340 15.06307766487322

FOX-1A (AO-85)
1 40967U 15058D   26170.29771999  .00001785  00000+0  16856-3 0  9993
2 40967  64.7756 272.4251 0130567  55.7770 305.5632 14.90977573113886

HORYU-4
1 41340U 16012D   26170.06239089  .00441316  73851-4  93802-3 0  9997
2 41340  30.9841  65.2425 0006076 284.0603  75.9383 15.97473078571116

LMRST-SAT
1 40971U 15058H   26170.25356149  .00001588  00000+0  15268-3 0  9997
2 40971  64.7752 268.9039 0132182  57.8257 303.5596 14.90596790113862

MAKERSAT 0
1 43016U 17073D   26170.20457006  .00014640  00000+0  39819-3 0  9999
2 43016  97.4615  52.7389 0104988 265.6718  93.2521 15.32154743466774

OPTICUBE 04
1 41851U 16067D   26170.06762593  .00001895  00000+0  12182-3 0  9992
2 41851  98.0698  22.4495 0016952 109.7058 250.6000 15.09665987525450

PERSEUS-M1
1 40039U 14033AF  26170.11013825  .00001341  00000+0  12604-3 0  9998
2 40039  97.9641 114.2733 0010173 294.0201  65.9954 14.95635701650926

POLYITAN-1
1 40042U 14033AJ  26169.61855687  .00015200  00000+0  47423-3 0  9991
2 40042  98.0940 196.0151 0008724 137.4054 222.7864 15.33297714653816

PROPCUBE 1 (FLORA)
1 40976U 15058N   26170.07608359  .00001665  00000+0  16542-3 0  9997
2 40976  64.7742 289.3817 0130839  60.2044 301.2003 14.89228620116544

PROPCUBE 3
1 40973U 15058K   26170.21714721  .00002017  00000+0  17564-3 0  9998
2 40973  64.7679 246.1936 0124148  59.1110 302.2142 14.94265864115103

RAVAN
1 41849U 16067B   26170.23193110  .00046493  00000+0  69570-3 0  9997
2 41849  97.9883  60.0397 0004052  25.6604 334.4848 15.54849791528014

SINOD-D 1
1 40968U 15058E   26170.21760491  .00002436  00000+0  20239-3 0  9995
2 40968  64.7747 252.5544 0119176  52.2744 308.9100 14.95915852116963

SINOD-D 3
1 40977U 15058P   26170.24916092  .00002387  00000+0  20859-3 0  9991
2 40977  64.7727 269.3804 0119372  57.3195 303.9365 14.94026138115067

SNAP-3 ALICE
1 40970U 15058G   26170.22482152  .00119396  00000+0  13971-2 0  9992
2 40970  64.7499  96.8866 0027580  11.6673 348.5106 15.60483812117206

SNAP-3 EDDIE
1 40972U 15058J   26170.14916514  .00117230  00000+0  13072-2 0  9996
2 40972  64.7421  87.8578 0027231  15.5679 344.6299 15.61749753119331

SNAP-3 JIMI
1 40975U 15058M   26170.25282596  .00003531  00000+0  24850-3 0  9992
2 40975  64.7632 213.2369 0106275  54.5347 306.5632 15.02312135114532

TIGRISAT
1 40043U 14033AK  26170.13707417  .00001544  00000+0  18251-3 0  9991
2 40043  97.7833 320.1038 0050536  68.9840 291.6771 14.85168537645917

UKUBE-1
1 40074U 14037F   26170.28377567  .00007453  00000+0  41954-3 0  9995
2 40074  98.4238 173.7760 0002742 128.5599 231.5876 15.13582539648873
